NUMBER,NAME,CH-NAME,STREET (SI,ST-Number,SCOPE OF B,Phone,Cable addr,Registered,Capital,Proprietor,CH-Proprie,Telegraphi,Other Note,Page in Di,X,Y
"1043",BOAT QUAY CAFE & RESTAURANT,勿基餐舘,Boat Quay,"3",Eating House,NA,NA,"1942",NA,P. M. Abu Baker S/O Pitchay Gani,,,,"79",103.851250600000000,1.285635917000000
"13658",WALDORF ASTORIA CAFE & RESTAURANT,歪羅亞杜里酒店,Boat Quay,3-A,Eating House,NA,NA,"1942",NA,Mohamed Kassim S/O Ahnadsah,,,,"1080",103.851250600000000,1.285635917000000
"10167",SCIENTIFIC HAIR DRESSING SALOON,沙英弟菲理髮店,Boat Quay,"4",Barbers,NA,NA,NA,NA,Tauna Kathirvaloo,,,,"793",103.851250600000000,1.285635917000000
"3740",HAN HONG,漢豐號,Boat Quay,"6",Commission Agents,NA,NA,"1946",NA,Quek Lim Hong,郭霖豐,,,"277",103.851250600000000,1.285635917000000
"10440",SENG SOON & COMPANY,成順公司,Boat Quay,"6","Estate and Hardware Suppliers, Shipchandlers, Etc","6844",NA,"1941",NA,Koh Hood Poh,成德公司,,,"814",103.851250600000000,1.285635917000000
"13349",UNITED CLEARING FORWARDING AGENCY,友聯起落貨公司,Boat Quay,"7",Cargo Clearing and Forwarding,NA,NA,"1947",NA,Francis Kenneth Cockcroft,,,,"1050",103.851250600000000,1.285635917000000
"4568",HONG SOON CHOE CHOO LTD.,,Boat Quay,No. 9,Real Estate,NA,NA,"1913","$35,000",Tan Soo Jin,,,,"336",103.851250600000000,1.285635917000000
"5987","KIM SENG LAND CO., LTD.",金成島有限公司,Boat Quay,No. 9,Real Estate,"6140",NA,"1911","$60,080",Directors: Tan Soo Jin,,,,"450",103.851250600000000,1.285635917000000
"5910",KIM HOCK GUAN ENG KEE,金福源永記,Boat Quay,"10","Rubber Dealers, Commission Agents, General Importers and Exporters","4469",NA,"1945",NA,Tay Eng Sim,,,,"445",103.851250600000000,1.285635917000000
"10320",SENG HOA (MALAYA) TRADING COMPANY,成華（馬來亞）貿易公司,Boat Quay,"10",Importers and Exporters and General Commission Agents,"4469",NA,"1948",NA,Chee Seng & Co. (Malaya) Ltd.,志成（馬來亞）有限公司,,,"805",103.851250600000000,1.285635917000000
"4043",HIAP THYE & COMPANY,協泰公司,Boat Quay,"11","General Merchants, Manufacturers’ Representative Importers and Exporters, Produce Merchants","6743",“HPTYE”,"1946",NA,Soh Bong Wah,,,,"299",103.851250600000000,1.285635917000000
"5806",KIAN THYE & CO.,建泰公司,Boat Quay,"11","General Merchants, Manufarturers' Representatives, Importers and Exporters, Produce Merchants","6743","""9621.""","1946",NA,Soh Bong Wah,蘇夢華,,,"437",103.851250600000000,1.285635917000000
"6797",LAU HAN PEOW,劉漢標,Boat Quay,"11",Importer & Exporter & Commission Agents,NA,NA,"1947",NA,Lau Han Peow,劉漢標,,,"513",103.851250600000000,1.285635917000000
"8723",NAM KEE & CO.,南記公司,Boat Quay,"11","Importers, Exporters and Shipping Agents",NA,NA,"1945",NA,Loh Kay,羅溪,,,"667",103.851250600000000,1.285635917000000
"12662",THAI NAN & CO.,泰南公司,Boat Quay,"11",Importers and Exporters,NA,NA,"1941",NA,Lee Tong,李桐,,,"994",103.851250600000000,1.285635917000000
"478",APPAN & CO.,,Boat Quay,"15",Charterers and Merchants,NA,NA,"1945",NA,Tiruchittambalam Vellayappan,,,,"41",103.851250600000000,1.285635917000000
"4421",HOE HIN & CO.,和興公司,Boat Quay,"15",Importers and Exporters,3094 and 6217,“HOHINPROCO”,"1946",NA,Goh Woon Nam,吳恩南,,,"325",103.851250600000000,1.285635917000000
"993",BIAN GUAN TRADING CO.,聯源貿易公司,Boat Quay,"16","Importers and Exporters, General Merchants and Commission Agents",82140 & 2703,NA,"1947",NA,Ho Tin Swee,何津水,,,"76",103.851250600000000,1.285635917000000
"2062",CHONG NAN HUNG,中商行,Boat Quay,"16","Importers, Exporters and Commission Agents",NA,NA,"1945",NA,Chew Kheng Wah,周卿行,,,"147",103.851250600000000,1.285635917000000
"13155",TONG SENG HIN & CO.,同成興公司,Boat Quay,"16",Sags Flour Merchants,NA,NA,"1918",NA,Tan Khai Kee,陳開基,,,"1033",103.851250600000000,1.285635917000000
"5865",KIM BIAN SENG,金錦成,Boat Quay,"22","Importers, Exporters and Commission Agents","80758",NA,"1947",NA,Tan Bian Oon,陳綿允,,,"441",103.851250600000000,1.285635917000000
"1416",CHEE SENG & CO.,志成公司,Boat Quay,"23","Importers, Exporters and General Merchants","4250",NA,"1947",NA,Goh Yong Pung,吳永邦,,,"104",103.851250600000000,1.285635917000000
"12745",THONG HENG & CO.,通興公司,Boat Quay,"24","Importers and Exporters, Rubber and Commission Agents","83368",NA,"1948",NA,Heng Pang Kiat,王邦傑,,,"1000",103.851250600000000,1.285635917000000
"5169",JOHORE TRADING CO.,柔佛貿易公司,Boat Quay,"25","Importer, Exporter, General Commission Agent",NA,NA,"1947",NA,Teo Khye Swee,,,,"384",103.851250600000000,1.285635917000000
"6721",LAM HIN RUBBER COMPANY LIMITED,南興樹膠有限公司,Boat Quay,"25",Rubber Merchants,7418 & 83529,NA,"1946","$300,000",Directors: Lee Wee Teow,李為朝,,,"508",103.851250600000000,1.285635917000000
"2936",ENG TECK COMPANY,榮德公司,Boat Quay,"27",Importers and Exporters,"83415",NA,"1947",NA,Tan Kim Tian,陳金田,,,"210",103.851250600000000,1.285635917000000
"3827",CHOP HEAP ENG HOCK,協榮福,Boat Quay,"29","Importer, Exporter and Commission Agents","3468",NA,"1948",NA,Ng Koon Yeok,黃坤約,,,"284",103.851250600000000,1.285635917000000
"3829",CHOP HEAP ENG SENG,協榮成,Boat Quay,"29","Importer, Exporter, Shipping and Commission Agents","3468",NA,"1944",NA,Seet Kim Sye,薛金獅,,,"284",103.851250600000000,1.285635917000000
"6732",LAM KEE & CO.,南記公司,Boat Quay,"29",Importers and Exporters,NA,NA,"1945",NA,See Kim Sye,薛金獅,,,"508",103.851250600000000,1.285635917000000
"7166",LIAN HO LIGHTERS CO.,聯和運輸公司,Boat Quay,"29",Lighterage,"83526",NA,"1946",NA,Chua Bio Leng,蔡懋領,,,"540",103.851250600000000,1.285635917000000
"4000",HIAP LEE & CO.,協利公司,Boat Quay,"30","Importer, Exporter, Commission Agent and Rubber Dealer","2512",NA,"1948",NA,Lim Choon Lay,林存禮,,,"296",103.851250600000000,1.285635917000000
"14532",HIAP LEE & CO.,協利公司,Boat Quay,"30","Importers, Exporters, Commission Agents and Rubber Dealers","2512",NA,"1924",NA,Lim Choon Lay,林存禮,,,"1155",103.851250600000000,1.285635917000000
"838",BAN TEK AN & CO.,萬德安公司,Boat Quay,"31",Importers and Exporters,"3679",NA,"1946",NA,Koh Siew Hoey,許受惠,,,"65",103.851250600000000,1.285635917000000
"1752",CHIAP LEE SHIPPING CO.,捷利船務公司,Boat Quay,"31",Shipping Agents,NA,NA,"1947",NA,Kho Siow Bin,許受敏,,,"128",103.851250600000000,1.285635917000000
"11393",SO LAM TRADING,蘇南貿易,Boat Quay,"31",Imports and Exports Merchants,NA,NA,"1948",NA,Aw Moo Min,歐莫明,,,"890",103.851250600000000,1.285635917000000
"12458",TECK CHIANG HUNG,德昌行,Boat Quay,"31",Importers and Exporters,NA,NA,"1946",NA,Tan Kiok Hang,陳克漢,,,"978",103.851250600000000,1.285635917000000
"13528",WAH ANN TRADING CO.,華安贸易公司,Boat Quay,"31","Importers and Exporters, Commission Agents",NA,NA,"1946",NA,Kho Siew Bin,许受敏,,,"1070",103.851250600000000,1.285635917000000
"5813",CHOP KIAN YONG,建榮號,Boat Quay,"32",Rubber and General Merchants,"4911",NA,"1938",NA,Tan Joo Siang,陳愈湘,,,"437",103.851250600000000,1.285635917000000
"8824",NAM TYE & CO.,南大公司,Boat Quay,"34",Importer & Exporter and General Commission Agents,"2741",NA,"1946",NA,Lee Chye Wu,李采五,,,"675",103.851250600000000,1.285635917000000
"7348",LIM GUAN SENG & CO.,林源成公司,Boat Quay,"35",Rubber Dealers,"4240",NA,"1941",NA,Lim Seng Chew,林成樹,,,"555",103.851250600000000,1.285635917000000
"12077",TAI KWONG,大光號,Boat Quay,36-37,Eating House,NA,NA,"1941",NA,Su Yee Kee,徐依氣,,,"948",103.851250600000000,1.285635917000000
"5800",KIAN SENG TRADING CO.,建成貿易公司,Boat Quay,"39","Importers, Exporters, Commission Agents and Shipping Agents","2374","""2374""","1946",NA,Teo Yat Bin,張逸民,,,"436",103.851250600000000,1.285635917000000
"11005",SIN MIN & CO.,新民公司,Boat Quay,"39","Importers, Exporters and Commission Agents",NA,NA,NA,NA,Poh Ee Chai,傅維彩,,,"858",103.851250600000000,1.285635917000000
"3702",HAK HENG SIANG & CO.,合興祥公司,Boat Quay,"40",Exporters and Commission Agents,"82558",NA,"1946",NA,Chan Gian Boey,曾仰梅,,,"274",103.851250600000000,1.285635917000000
"8508",CHOP MUI HENG,美興號,Boat Quay,"40",Rice Retailers,NA,NA,"1938",NA,Teo Peng Yong,張炳榮,,,"647",103.851250600000000,1.285635917000000
"12558",TECK YEW SENG,德有成,Boat Quay (1st Floor),"40","Importers, Exporters and Commission Agents",NA,NA,"1948",NA,Sim Mong Siew,沈茂綬,,,"985",103.851250600000000,1.285635917000000
"4698",HUAT HENG CO.,發興公司,Boat Quay,"42","Importer, Exporter and Commission Agents","2507",NA,"1947",NA,Ng Ker Siang,黃居善,,,"346",103.851250600000000,1.285635917000000
"9104",NG NGEE CHEW CHOP TAI HENG,黃宜就商號大興,Boat Quay,"42","Importers, Exporters and Commission Agents",NA,NA,"1947",NA,Ng Ngee Chew,黃宜就,,,"698",103.851250600000000,1.285635917000000
"1316",CHAN TONG & COMPANY,壯中公司,Boat Quay,"43",General Merchants,"80871",“CHANRUBCO.”,"1948",NA,Partners: C. T. Lee,,,,"98",103.851250600000000,1.285635917000000
"10261",SEN LOONG & CO.,信隆公司,Boat Quay,"43",Importers and Exporters and Commission Agents,NA,NA,"1947",NA,Ang Say Pheow,翁細標,,,"801",103.851250600000000,1.285635917000000
"2698",THE EASTERN TRADERS,東方貿易公司,Boat Quay,"44","Importers and Exporters, Hardware Dealers","6957",NA,"1946",NA,Tan Quee Phuan,陳貴潘,,,"196",103.851250600000000,1.285635917000000
"2194",CHOP CHUA GUAN HONG,蔡源豐號,Boat Quay,"45",Rubber and General Merchants,"2159",NA,"1929",NA,Chua Ho San,蔡河珊,,,"155",103.851250600000000,1.285635917000000
"7089",LEONG SENG & CO.,隆盛公司,Boat Quay,"48","Importers, Exporters and Commission Agents","80466",NA,"1945",NA,Lim Peng Teng,林邦呈,,,"534",103.851250600000000,1.285635917000000
"1558",CHER HAK & CO.,之合公司,Boat Quay,"51","Importers, Exporters, Commission Agents and Rubber Merchants","4301",NA,"1946",NA,Yeo Teck Mong,楊德茂,,,"113",103.851250600000000,1.285635917000000
"2757",CHOP EK LIONG HIN,益隆興,Boat Quay,"52",Importers and Exporters,"2506",NA,"1932",NA,Thio Soen Tioe,張順疇,,,"199",103.851250600000000,1.285635917000000
"2758",EK LIONG HIN LTD.,益隆興有限公司,Boat Quay,"52",General Importers and Exporters,NA,NA,"1948","$2,000,000",Thio Soen Tioe,,,,"200",103.851250600000000,1.285635917000000
"3224",CHOP GE SING KONGSI,義成公司,Boat Quay,"52",Importers and Exporters,"80470",NA,"1944",NA,Oeij Teng Piaoe,黃定標,,,"234",103.851250600000000,1.285635917000000
"1879",CHIN NAM & CO.,振南公司,Boat Quay,"53","Importers, Exporters and Commission Agents","83309",NA,"1943",NA,Quek Cher Chee,郭之志,,,"136",103.851250600000000,1.285635917000000
"1884",CHIN NAM HUA KEE,振南和記,Boat Quay,"53","Imports, Exports & Shipping Agency","83309",NA,"1948",NA,Kwek Cher Chee,郭之志,,,"136",103.851250600000000,1.285635917000000
"7442",J. H. LIONG & CO.,梁公司,Boat Quay,"53",General Merchants and Shipping Agents,NA,NA,"1948",NA,Liong Jiaw Hiong,梁耀香,,,"562",103.851250600000000,1.285635917000000
"9542",CHOP PENG WHATT & CO.,炳發公司,Boat Quay,"53","Importers, Exporters and Commission Agents","7568",NA,"1940",NA,Madam Kwek Kin Noi,郭錦蓮,,,"732",103.851250600000000,1.285635917000000
"6754",LAM SENG HONG,南成豐號,Boat Quay,"54",Importers and Exporters,"4166",NA,"1946",NA,Quek Yong Peng,郭永平,,,"510",103.851250600000000,1.285635917000000
"10367",SENG HUAT GENERAL MERCHANT,成發商行,Boat Quay,"54","Fish Merchants, Importers and Exporters",NA,NA,"1945",NA,Goh Ah Hai,吳亞海,,,"809",103.851250600000000,1.285635917000000
"11499",SOON HUAT & CO.,順發公司,Boat Quay,54-A,Lighter and Labour Suppliers,"3427",NA,"1947",NA,Manager: K. N. Siong,,,,"899",103.851250600000000,1.285635917000000
"274",AIK CHIANG SIEW KEE & CO.,億昌紹記公司,Boat Quay,"55",Importers and Exporters,"82650",NA,"1947",NA,Heng Thong Swee,王通水,,,"27",103.851250600000000,1.285635917000000
"5982",CHOP KIM SENG HIN OIL MILLS,金成興油較,Boat Quay,"55",Cocoanut Oil Manufacturers,NA,NA,"1947",NA,Hoe Seng Huat,何成發,,,"450",103.851250600000000,1.285635917000000
"6160",KONG SENG CHAN,公成棧,Boat Quay,"55",Rubber Commission Agents,"6689",NA,"1923",NA,Tay Heow Hong,鄭曉峯,,,"462",103.851250600000000,1.285635917000000
"14144",YEOW KEE & CO.,耀記公司,Boat Quay,"55",Rubber General Commission Agents,"82072",NA,"1945",NA,Tan Keng Yeow,,,,"1118",103.851250600000000,1.285635917000000
"7598",LOW YONG CHIANG. LTD.,劉榮章,Boat Quay,No. 57,Fish Dealers,"6739",NA,"1941","$150,000",Directors: Low Peng Ser,,,,"573",103.851250600000000,1.285635917000000
"1830",CHIN HOCK CHIANG & CO.,振福昌公司,Boat Quay,"58",Rubber Merchants and Commission Agents,"3140",NA,"1911",NA,Lim Boon Teck,林文德,,,"133",103.851250600000000,1.285635917000000
"5747",KIAN HIN & CO.,建興公司,Boat Quay,"62",Commission Agents & Bill Collectors,"83001",NA,"1948",NA,Gwee On Nua,魏烏欄,,,"432",103.851250600000000,1.285635917000000
"11472",SOON HENG SHIPPING CO.,順興船務公司,Boat Quay,"62",Shipping Business for Cargo and Passengers,NA,NA,"1948",NA,Gwee On Nua,魏烏欄,,,"897",103.851250600000000,1.285635917000000
"14122",YEO KWANG YAK,楊廣益,Boat Quay,"64",Importers and Exporters and Commission Agents,NA,NA,"1947",NA,Yeo Guan Sian,楊元善,,,"1117",103.851250600000000,1.285635917000000
"1149",BUAN JOO HONG & CO.,萬裕豐公司,Boat Quay,"66",Imports and Exports Merchants,"6929",NA,"1947",NA,Seow Theng Chye,蕭廷材,,,"87",103.851250600000000,1.285635917000000
"3201",GAN CHONG BIN & CO. LTD.,顏宗敏有限公司,Boat Quay,"66",General Merchants,NA,NA,"1946","£500,000",Gam Chong Bin,,,,"232",103.851250600000000,1.285635917000000
"3390",GOODEAL & CO.,利川公司,Boat Quay,"66",Merchants and Commission Agents,NA,NA,"1947",NA,Nah Yong Liam,藍永廉,,,"245",103.851250600000000,1.285635917000000
"5581",CHOP KHEE HONG,啓豐號,Boat Quay,"66",Rubber & General Produce Merchants,"6929",NA,"1945",NA,Tan Khee Kiah,陳啓經,,,"420",103.851250600000000,1.285635917000000
"13375",UNITED OVERSEA TRADING CO.,聯僑貿易公司,Boat Quay,"66",Importers and Exporters,NA,NA,NA,NA,Nah Yong Liam,藍永虏,,,"1053",103.851250600000000,1.285635917000000
"12526",CHOP TECK SENG,薛德成,Boat Quay,"67","General Importers, Exporters and Commission Agents","2361",NA,"1936",NA,Seet Hee Khoon,,,,"983",103.851250600000000,1.285635917000000
"3493",GUAN HENG & CO.,元亨公司,Boat Quay,"68",Commission Agents,"6193",NA,"1946",NA,Chia Kee Chiang,繼昌謝,,,"252",103.851250600000000,1.285635917000000
"6580",CHOP KWONG TECK SENG,光德成號,Boat Quay,"69",Importer and Exporter and Commission Agents,"3463",NA,"1948",NA,Sim Cheng Guan,沈清源,,,"493",103.851250600000000,1.285635917000000
"5945",CHOP KIM LEE SENG KEE,錦利盛記,Boat Quay,"71","Importers, Exporters, Commission Agents","4423",NA,"1946",NA,Soh Piak Yeow,蘇壁耀,,,"447",103.851250600000000,1.285635917000000
"2174",CHU GUAN TRADING CO.,聚源貿易公司,Boat Quay,"72",General Merchants Importers and Exporters,"6801",NA,"1948",NA,Ong Hee Thia,王輝廳,,,"154",103.851250600000000,1.285635917000000
"10704",SIM & CO.,森公司,Boat Quay,"72",General Merchants and Commission Agents,"6801",NA,"1947",NA,Teo Kim Choon,趙金春,,,"835",103.851250600000000,1.285635917000000
"11468",SOON HAK HENG,順合興,Boat Quay,"72","Importers, Exporters and Commission Agents",NA,NA,"1947",NA,Lamyong Saralamp,,,,"896",103.851250600000000,1.285635917000000
"8602",CHOP NAH WEE HENG,藍偉興,Boat Quay,"74","Rice Importers, Exporters, General Commission and Shipping Agents","2259",NA,"1920",NA,Nah Wee Liat,藍偉烈,,,"658",103.851250600000000,1.285635917000000
"5720",CHOP KIA HAK,嘉合號,Boat Quay,"75","Importers and Exporters, Commission Agents",NA,NA,"1947",NA,To Guan Kia,杜元嘉,,,"430",103.851250600000000,1.285635917000000
"9560",PERTISA,普邸舍,Boat Quay,"75","Importer, Exporter and General Merchants",NA,NA,"1948",NA,Mohd. Hassan Basri,普邸舍,,,"734",103.851250600000000,1.285635917000000
"10841",SIN HAI TRADING CO.,新海貿易公司,Boat Quay,"75","Importers and Exporters, General Merchants","4346",NA,"1948",NA,Wong Siew Hoi,黃秀海,,,"846",103.851250600000000,1.285635917000000
"10891",SIN HONG,新豐號,Boat Quay,"75","Importers and Exporters, General Merchants and Commission Agents","80540",NA,"1946",NA,Lim Pang Kee,林炳玕,,,"849",103.851250600000000,1.285635917000000
"2269",CHUAN HOE TRADING CO.,泉和貿易公司,Boat Quay,"76","Importers, Exporters and Commission Agents","2921",NA,"1947",NA,Lee Chiau Kew,李照裘,,,"159",103.851250600000000,1.285635917000000
"10353",CHOP SENG HUAT,成發號,Boat Quay,"76","Importers, Exporters and Commission Agents","2921",NA,"1939",NA,Lee Soon See,李俊時,,,"808",103.851250600000000,1.285635917000000
"10668",SIANG HUAH SENG KEE,祥和盛記,Boat Quay,"77","Rice and General Merchants, Importers and Exporters, etc.","6833",NA,"1932",NA,Goh Chong Kee,吳宗其,,,"832",103.851250600000000,1.285635917000000
"12822",THYE KEE,泰記,Boat Quay,"77","Rice and General Merchants, Importers and Exporters","6833","""SANWASENKY.""","1946",NA,Goh Chong Kee,吳宗其,,,"1006",103.851250600000000,1.285635917000000
"12261","TAN GUAN LEE CO., LTD.",陳元利有限公司,Boat Quay,"79","General Merchants, Exporters and Importers etc",7576 & 7578,NA,"1940","$1,000,000",Directors: Tan Lip Seck,,,,"963",103.851250600000000,1.285635917000000
"3150",FOONG HUANG,豐亨號,Boat Quay,"80","Rice Dealers, Importers & Exporters","3514",NA,"1934",NA,Tang Cheong Woon,鄧昌煥,,,"226",103.851250600000000,1.285635917000000
"4732",HUNG CHUAN & CO.,漢川公司,Boat Quay,"81",Importers and Exporters,"4797",“MAYEVEE”,"1947",NA,Tan Chan Siang,陳壯仙,,,"348",103.851250600000000,1.285635917000000
"6009",KIM TECK SIANG,錦德祥,Boat Quay,"81","Importers, Exporters and Commission Agents","83782",NA,"1946",NA,Chan Kim Tian,曾錦添,,,"451",103.851250600000000,1.285635917000000
"9180",NIA TUNG ANN KEE,嶺東安記,Boat Quay,"82",Shipping and Commission Agents,NA,NA,"1947",NA,Koh Joo Meng,許如明,,,"703",103.851250600000000,1.285635917000000
"14261",CHOP YONG ANN KAI KEE,永安開記,Boat Quay,"82","Rubber Producers, Importers, Exporters and Commission Agents","7108",NA,"1930",NA,Nah Wee Liat,藍偉烈,,,"1127",103.851250600000000,1.285635917000000
"14722",CHOP YONG ANN KAI KEE,永安開記,Boat Quay,"82","Rubber Producers, Importers, Exporters and Commission Agents","7108",“YAKK.”,"1930",NA,Nah Wee Liat,藍偉烈,,,"1172",103.851250600000000,1.285635917000000
"3867",HEN HENG & CO.,恆興公司,Boat Quay,"83","Importers, Exporters and Commission Agents","83366",NA,"1946",NA,Tan Yee Heng,陳意興,,,"287",103.851250600000000,1.285635917000000
"12278",TAN HUAT HENG & CO.,陳發興公司,Boat Quay,"95",Commission Agents,"7809",NA,"1946",NA,Tan Soon Kang,陳巽江,,,"964",103.851250600000000,1.285635917000000
"12577",TENG BEE,鼎美號,Boat Quay,"95",Rice Merchants and Commission Agents,NA,NA,"1925",NA,Tan Siew Whee,陳宋輝,,,"987",103.851250600000000,1.285635917000000
"11126",SIN YEAN SENG BOON KEE,新淵盛文記,Boat Quay,"96",Lorry Transport,NA,NA,"1947",NA,Baey Boon Leong,馬文良,,,"867",103.851250600000000,1.285635917000000
"12952",TIONG GUAN PRODUCE CO.,中原土產公司,Boat Quay,"96","Importers, Exporters and Commission Agents",NA,NA,"1947",NA,Goh Koon Chan,吳根贊,,,"1017",103.851250600000000,1.285635917000000
"1883",CHOP CHIN NAM YONG,振南榮,Boat Quay,"98",Commission Agents,NA,NA,"1946",NA,Tan Sam Yer,陳三餘,,,"136",103.851250600000000,1.285635917000000
"4252",HOCK HIN SHIPPING & TRADING CO.,福興公司,Boat Quay,"102","Shipping and Forwarding Agents, Importers, Exporters and General Merchants","83173",NA,"1946",NA,Koh Ah Kow,郭亞九,,,"314",103.851250600000000,1.285635917000000
"8809",NAM SUN SHIPPING CO.,南山船務公司,Boat Quay,"102",Shipping,"6402",NA,"1941",NA,Tan Lye Ho,陳來好,,,"674",103.851250600000000,1.285635917000000
"9285",ONG SIONG BEE,王松美,Boat Quay,"102",Twakow Lighterage,"6402",NA,"1941",NA,Ong Siong Bee,王松美,,,"712",103.851250600000000,1.285635917000000
"13522",WADSWORTH & CO.,衛斯活公司,Boat Quay,"102",Forwarding Agent,"3388",NA,"1946",NA,James Samuel Bertram Wadsworth,,,,"1070",103.851250600000000,1.285635917000000
"2855",ENG HONG & CO.,榮豐公司,Boat Quay,"103","General Merchants, Importers, Exporters","82185",NA,"1946",NA,Low Hong Cheong,劉鴻昌,,,"206",103.851250600000000,1.285635917000000
"641",BAN BEE & CO.,萬美公司,Boat Quay,"104",Sundries and Foodstuffs Dealers,NA,NA,"1947",NA,Ong Tek Toh,王澤淘,,,"53",103.851250600000000,1.285635917000000
"6748",LAM SAN HUP & CO.,南山合公司,Boat Quay,"105",Rice Dealers,NA,NA,"1943",NA,Ong Siong Bee,王松美,,,"510",103.851250600000000,1.285635917000000
"11935",SWEE HUAT & CO.,瑞發公司,Boat Quay,"106","Lighter and Junk Suppliers, Contractors and Commission Agents",NA,NA,"1933",NA,Goh Swee Leng,吳瑞能,,,"934",103.851250600000000,1.285635917000000
"11947",SWEE KIAT SIONG,瑞吉祥,Boat Quay,"106",Rice Merchants,"2226",NA,"1933",NA,Goh Swee Hoon,吴瑞雲,,,"936",103.851250600000000,1.285635917000000
"11950",SWEE LEE & CO.,瑞利公司,Boat Quay,"106",Oil Merchants,NA,NA,"1933",NA,Goh Swee Leng,吳瑞能,,,"936",103.851250600000000,1.285635917000000
"8991",CHOP NEO HUAT HIN,梁發興,Boat Quay,"107",Cattle Foodstuff and Rice Merchants,NA,NA,"1946",NA,Neo Koon Tho,梁昆托,,,"689",103.851250600000000,1.285635917000000
"12748",THONG HIN & CO.,通興公司,Boat Quay,"108",Importers and Foodstuffs Merchants,"7650",NA,"1931",NA,Ong Hoo Ong,王富翁,,,"1000",103.851250600000000,1.285635917000000
"1703",CHOP CHIA HONG,正豐號,Boat Quay,"110",Cattle Fodder Dealers,NA,NA,"1946",NA,Sim Loy Boon,沈禮文,,,"125",103.851250600000000,1.285635917000000
"14185",YEWAH & CO.,有和公司,Boat Quay,"110","Importers, Exporters and Dealers in Sundries",NA,NA,"1947",NA,Sim Kwang Chia,沈觀正,,,"1121",103.851250600000000,1.285635917000000
"11992",SZE TECK TNG,世德堂,"Boat Quay, 2nd floor","110",Making Chinese Medicines,NA,NA,"1947",NA,Seow Cher Chek,蕭之一,,,"939",103.851250600000000,1.285635917000000
"14011",CHOP YAK SENG HENG,益成興號,Boat Quay,"113",Wholesale Fish Merchants,NA,NA,"1945",NA,Heng Teng Siak,王廷錫,,,"1109",103.851250600000000,1.285635917000000
"7192",LIAN KEE & CO.,亮記公司,Boat Quay,"115","Importers and Exporters, Shipping Agents and Fish Merchants","2363",NA,"1938",NA,Lee Chin Tong,李振東,,,"543",103.851250600000000,1.285635917000000
"14264",YONG BAN GUAN,永萬源,Boat Quay,"116",Importers and Exporters,NA,NA,"1900",NA,Ng Sai Cher,黃賽芝,,,"1127",103.851250600000000,1.285635917000000
"8190",MOH SHING CO.,茂盛公司,Boat Quay,"118","General Importers, Exporters and Dealers in Rice, etc.","7064",NA,"1946",NA,Neo Khoon Thok,梁昆托,,,"622",103.851250600000000,1.285635917000000
"2027",CHNG HUA SENG,莊和成,Boat Quay,"121","Importers, Exporters and Fish Wholesale Merchants","4846",NA,"1930",NA,Chng Song Thiam,莊宋添,,,"145",103.851250600000000,1.285635917000000
"4681",HUA SIANG,和祥號,Boat Quay,"122","Rubber, Imports, Exports and Commission Agents",NA,NA,"1946",NA,Yeo Siu Yong,姚修勇,,,"344",103.851250600000000,1.285635917000000
"7530",LONG HUAT HUP KEE,隆發合記,Boat Quay,"122","Importers, Exporters and Commission Agents",NA,NA,"1947",NA,Koh Chin Koh (Koh Seow Guk),許振國（許少岳）,,,"568",103.851250600000000,1.285635917000000
"14589",LONG HUAT HUP KEE,隆發合記,Boat Quay,"122","Importers, Exporters and Commission Agents",NA,NA,"1947",NA,Chan Sze Ching,曾賜深,,,"1160",103.851250600000000,1.285635917000000
"14287",YONG HENG LEE,榮興利,Boat Quay,"123",Importers and Exporters of Copra,NA,NA,"1933",NA,Koh Cher Kwee,許慈貴,,,"1129",103.851250600000000,1.285635917000000
"14375",YONG TECK HONG,養德榮,Boat Quay,"123","Importers and Exporters, and Commission Agents","7715",NA,"1924",NA,Koh Cher Kwee,許慈貴,,,"1136",103.851250600000000,1.285635917000000
"1995",CHOP CHIP HONG HAK KEE,集豐合記,Boat Quay,"125","Fish Dealers, Importers and Exporters","4259",NA,"1945",NA,Tan Hor Kwang,陳鶴光,,,"143",103.851250600000000,1.285635917000000
"3547",GUAN HUAT LEE TIAN KEE,源發利庭記,Boat Quay,"125",Remittances,NA,NA,"1946",NA,Chan Chek Meng,曾一鳴,,,"255",103.851250600000000,1.285635917000000
"13092",TONG HOCK CO.,同福公司,Boat Quay,"125","Importers and Exporters, Dealers in Sundries and Provisions",NA,NA,"1948",NA,Madam Lee Seok Cheng,李淑清,,,"1028",103.851250600000000,1.285635917000000
"4914",HWA KEE,和記,Boat Quay,"126",Liquor Shop,NA,NA,"1913",NA,Chng Nghee Huat,莊義發,,,"361",103.851250600000000,1.285635917000000
"13257",TUNG FOH TONG,東和當,Boat Quay,"127",Pawnshop,NA,NA,"1947",NA,Chew Lan Kai,周蘭階,,,"1040",103.851250600000000,1.285635917000000
"12138",TAI THONG & CO.,大通公司,Boat Quay,"128",Sundries Retailers,"4012",NA,"1940",NA,Ng Sze Shin,吳世馨,,,"953",103.851250600000000,1.285635917000000
"14023",YAN OI CHAN HING KEE,仁愛棧聲記,Boat Quay,"128",Chinese Druggists,"4012",NA,"1927",NA,Ng Si Hing,吳世馨,,,"1110",103.851250600000000,1.285635917000000
"1156",CHOP BUAN SOON SENG,萬順成,Boat Quay,"129",Remittance Agents,NA,NA,"1948",NA,Koh Eng Chin,許應貞,,,"87",103.851250600000000,1.285635917000000
"1435",CHOP CHEK TENG,齋亭號,Boat Quay,"129","Import, Export and General Merchants",NA,NA,"1947",NA,Teo Chiang Hang,張長漢,,,"106",103.851250600000000,1.285635917000000
"5598",CHOP KHENG GUAN HENG,慶源興,Boat Quay,"129",Sundries and Provisions Retailers,NA,NA,"1941",NA,Tan Keng Hee,陳景禧,,,"422",103.851250600000000,1.285635917000000
"11471",SOON HENG LONG,順興隆,Boat Quay,"130",Hardware Merchants,NA,NA,"1946",NA,Lee Yeow Kwang,李耀光,,,"897",103.851250600000000,1.285635917000000
"4672",HUA MONG ANN KEE,華茂安記,Boat Quay,"131","General Importers, Exporters and Commission Agents",NA,NA,"1917",NA,Lim Piak Hui,林碧輝,,,"343",103.851250600000000,1.285635917000000
"7315",LIM ANN TONG,林安東,Boat Quay,"131",Ground Nuts and Coconuts Dealers,NA,NA,"1942",NA,Lim Ann How,林安灝,,,"552",103.851250600000000,1.285635917000000
"10934",SIN HUP LEE,新合利,Boat Quay,"132","Rope, Paint and Hardware Merchants","2725",NA,"1946",NA,Tan Teck Neo,陳德娘,,,"853",103.851250600000000,1.285635917000000
"14344",YONG NGIAP HUNG,榮業行,Boat Quay,"133","Provisions and Sundries, Liquor Dealers","4349",NA,"1942",NA,Lee Yeow Kwong,李彩光,,,"1133",103.851250600000000,1.285635917000000
"4074",HIN THYE,興泰號,Boat Quay,"134",Salt Merchants,"3234",NA,"1947",NA,Khoo Chee Leong,邱志良,,,"301",103.851250600000000,1.285635917000000
"4076",CHOP HIN WHO,興和號,Boat Quay,"134",Salt Merchants,NA,NA,"1933",NA,Wong Kok Wah,黃國華,,,"301",103.851250600000000,1.285635917000000
"13260",TUNG KEE CONSTRUCTION CO.,同記建築公司,Boat Quay,"134",Building Contractors,NA,NA,"1946",NA,Ng Wai Ngoh,伍煒岳,,,"1041",103.851250600000000,1.285635917000000
"13261",TUNG KEE CONSTRUCTION CO.,同記建築公司,Boat Quay,"134",Construction and General Building,NA,NA,"1948",NA,Kwan Chen Wing,關正榮,,,"1041",103.851250600000000,1.285635917000000
"3706",CHOP HAK HUAT,合發號,Boat Quay,"135",Clog Makers,NA,NA,"1938",NA,Teo Kiok Jin,張克仁,,,"275",103.851250600000000,1.285635917000000
"6138",KONG LEE & CO.,公利公司,Boat Quay,"137",Rice and Provisions Retailers,"80476",NA,"1947",NA,Tan Yong Luan,陳永鑾,,,"461",103.851250600000000,1.285635917000000
"6131",KONG HUAT,公發號,Boat Quay,"138",Sundries Retailers,NA,NA,"1939",NA,Chua Yong Saik,蔡永錫,,,"460",103.851250600000000,1.285635917000000
"11519",CHOP SOON LEE,順利號,Boat Quay,"138",Eating House,NA,NA,"1948",NA,Tan Tow Kim,陳道金,,,"900",103.851250600000000,1.285635917000000
"14015",YAK THONG & CO.,益通公司,Boat Quay,"139",Wholesale Fish Merchants,NA,NA,"1947",NA,Goh Ah Hai,吳亞海,,,"1109",103.851250600000000,1.285635917000000
"4735",HUNG HIN & CO.,漢興公司,Boat Quay (2nd Floor),"139",Druggist,NA,NA,"1947",NA,Chew Hung Jin,周漢人,,,"348",103.851250600000000,1.285635917000000
"11907",SWEE CHOON & CO.,瑞春公司,Boat Quay,"140",Gunny Bags Dealers,"2871",NA,"1947",NA,Ng Ee Cher,黃怡資,,,"932",103.851250600000000,1.285635917000000
"1895",CHOP CHIN SENG,振昇號,Boat Quay,"141","Importers, Exporters and General Merchants",NA,NA,"1947",NA,Tay Tuan Seng,鄭端昇,,,"137",103.851250600000000,1.285635917000000
"13228",CHOP TUAN HENG,端興號,Boat Quay,"141",Commission Agents and Importers and Exporters,NA,NA,"1948",NA,Ng Kim Mui,黃金美,,,"1038",103.851250600000000,1.285635917000000
"13809",WING GUAN LEE,永源利,Boat Quay,"141",Importers and Exporters of Copra,NA,NA,"1947",NA,Lee Khim Sim,李琴森,,,"1092",103.851250600000000,1.285635917000000
"1967",CHING HONG & CO.,進豐公司,Boat Quay,"142",Importers and Exporters,NA,NA,"1946",NA,Wee Hean Poh,黃顯保,,,"142",103.851250600000000,1.285635917000000
"3528",GUAN HONG LOONG & CO.,源豐隆,Boat Quay,"142",Salts Merchants,"4053",NA,"1948",NA,Chong Nam Seng,鐘南生,,,"254",103.851250600000000,1.285635917000000
"9494",PECK HONG,百豐號,Boat Quay,"142",Commission Agents,NA,NA,"1945",NA,Cheong Thim Kui,張添貴,,,"729",103.851250600000000,1.285635917000000
"10328",SENG HOE HONG,成和豐,Boat Quay,"142",Firewood Merchants,NA,NA,"1947",NA,Ang Thiam Swee,洪添水,,,"806",103.851250600000000,1.285635917000000
"13047",TONG FATT & CO.,同發公司,Boat Quay,"143",Salt and Local Products Merchants,"3234",NA,"1945",NA,Khoo Chee Liang,丘志良,,,"1024",103.851250600000000,1.285635917000000
"1311",CHAN SWEE HUAT,曾瑞發,Boat Quay,"146",Charcoal and Firewood Merchants,"7944",NA,"1933",NA,Chan Cher Song,曾芝松,,,"98",103.851250600000000,1.285635917000000
"8520",MUI THONG HUNG,美通行,Boat Quay,"146","Importers, Exporters, Shipping and Commission Agents","7944",NA,"1947",NA,Siew Wei Hak,蕭偉合,,,"648",103.851250600000000,1.285635917000000
"14473",YUN NAN YUEN,榕南園,Boat Quay,"149",Eating House,NA,NA,"1938",NA,Ewe Teck Seong,余德松,,,"1143",103.851250600000000,1.285635917000000
"1150",BUAN LEE SENG LIMITED,萬利成有限公司,Boat Quay,"154","Pepper, Copra, Sago-flour & General Produce and Spice Dealers, Importer and Exporters","2617, 2468 & 7360",“PEPPERGAMB.”,NA,"$2,000,000",Governing Director and Chairman: Tan Siak Kew,陳鍚九,,,"87",103.851250600000000,1.285635917000000
"6998",LEE THONG,利通號,Boat Quay,"154",General Merchants and Commission Agents,NA,NA,"1947",NA,Buan Lee Seng Ltd.,萬利成有限公司,,,"528",103.851250600000000,1.285635917000000
"2425",CHYE SOON HUAT,再顺發,Boat Quay (1st Floor),"156",Firewood and Charcoal Merchants,NA,NA,"1933",NA,Kee Teck San,紀竹山,,,"169",103.851250600000000,1.285635917000000
"7957",MAY STAR CO.,上海美星公司,Boat Quay,"163",Carpenters,"4751",NA,"1938",NA,Thai Nan Won,蔡仍汶,,,"605",103.851250600000000,1.285635917000000
