NUMBER,NAME,CH-NAME,STREET (SI,ST-Number,SCOPE OF B,Phone,Cable addr,Registered,Capital,Proprietor,CH-Proprie,Telegraphi,Other Note,Page in Di,X,Y
"5003",THE INDIAN OVERSEAS BANK LTD.,印度海外銀行,Collyer Quay,No. 1,"Banking, etc.","2626",NA,"1936","R. S. 50,00,000",,,,Inc. in British India,"368",103.852679699999996,1.283567590000000
"451","THE ANGLO-SAXON PETROLEUM CO., (EASTERN) LTD.",英格魯沙遜煤治公司,Collyer Quay (Shell House),,"Transporting, Supplying and Selling Petroleum etc.","3811","""ANGSAXPET""","1945","£10,000",Local rep: Reginald Woodman Hooper,,,Inc. in England,"39",103.852679699999996,1.283567590000000
"1861","CHIN KENG LEE CO., LTD.",振慶利有限公司,Collyer Quay,"2",Auctioneers and Valuers,"2342","""AUCTIONEER.""",NA,NA,"Dato S. Q. Wong, J.P",,,,"135",103.852679699999996,1.283567590000000
"1968","CHING KENG LEE CO., LTD.",莊慶利拍賣行,Collyer Quay,"2",Auctioneers and Valuers,"2342",“AUCTIONEER.”,NA,NA,"Dato S. Q.Wong, J. P",,,,"142",103.852679699999996,1.283567590000000
"6248",KULAI SAWMILL HUP KEE,古來火鋸合記,Collyer Quay,"3",Sawmillers,NA,NA,"1947",NA,Bon Kok Moh,文國茂,,,"469",103.852679699999996,1.283567590000000
"13892",WINMORE STORE,永茂行,Collyer Quay,"3",Provisions Retailers,"6445",NA,"1947",NA,Boon Kok Moh,文國茂,,,"1099",103.852679699999996,1.283567590000000
"2638","EAST INDIES TRADING CO., LTD.",東印度貿易公司,Collyer Quay,"4",Indentors Import & Export Merchants and Commission Agents,,NA,"1930","$50,000",Richard Station Nelson,,,,"191",103.852679699999996,1.283567590000000
"3030",FARR RUBBER AGENCY LIMITED,法拉樹膠代理有限公司,Collyer Quay,4-1,"Rubber Brokers, Guarantee Brokers",NA,NA,"1936",$500,Roger Elvy Prentis,,,,"219",103.852679699999996,1.283567590000000
"8942","NASSIM & CO., LTD.",那森有限公司,Collyer Quay,4/4-1,"House, Estate, and General Agents","5319",NA,"1947","$50,000",Directors: Moses Joseph Nassim,,,,"685",103.852679699999996,1.283567590000000
"6",J. J. H. AARSEN & CO.,亞新公司,Collyer Quay,"10",Factory Representative,"7183",NA,NA,NA,Aarsen Johan Jacob Heinrich,,,,"9",103.852679699999996,1.283567590000000
"1063",BONYEAR TRADING CO.,文野貿易公司,Collyer Quay,"10",Sundries Retailers,"7161",NA,"1945",NA,Young Bonyear,楊文野,,,"80",103.852679699999996,1.283567590000000
"3543",GUAN HUAT & CO.,源發公司,Collyer Quay,"10","Importers, Exporters and Commission Agents",NA,NA,"1948",NA,Tan Siew Cheng,陳清秀,,Registered -948,"255",103.852679699999996,1.283567590000000
"5051",INTERNATIONAL TRADERS SYNDICATE,國際貿易組合,Collyer Quay,"10",Importers and Exporters,NA,NA,"1948",NA,Joseph Mendez S/O Andrew Mendez,,,,"372",103.852679699999996,1.283567590000000
"5687",KHONG & CO.,康公司,Collyer Quay,"10","Importers and Exporters, Commission Agents, Contractors",NA,NA,"1946",NA,Mah Khong,馬康,,,"428",103.852679699999996,1.283567590000000
"5690",KHONG SUPPLY & TRANSPORT CO.,聯合運輸及供應公司,Collyer Quay,"10",Supply and Transport,NA,NA,"1948",NA,Lim Tsien,林津,,,"428",103.852679699999996,1.283567590000000
"6210",KOSTER COMPANY LTD.,柯斯達有限公司,Collyer Quay,"10",General Merchants,"80637","""RETSOK""","1939","$50,000",Directors: L. J. Koster,,,,"466",103.852679699999996,1.283567590000000
"7662",LYON WATCH REPAIRER,勵文鐘錶,Collyer Quay,"10",Watch Makers,NA,NA,"1945",NA,Lum Poi Mun,林沛文,,,"578",103.852679699999996,1.283567590000000
"7801",MALAYAN COMMERCE & INDUSTRIES LTD.,馬來亞工商有限公司,Collyer Quay,"10","General Merchants, Importers and Exporters","83653",“MACOMIND.”,"1946","$50,000",Directors: Leong Kim Fook,,,,"592",103.852679699999996,1.283567590000000
"8452",MOLLERS' (MALAYA) LTD.,摩力有限公司,Collyer Quay,"10","Shipowners, General Shipping Agents",80181 & 82277,NA,"1941","$10,000",Directors: Bruce St. Clair MacKenzie,,,,"642",103.852679699999996,1.283567590000000
"8960","NATIONAL INSURANCE CO., LTD.",國民保險公司,Collyer Quay,"10",Insurance Etc,"82906",NA,"1906",Rs. 10000000,Local Rep: Sir Arnold Percy Robinson,,,Inc. In India,"686",103.852679699999996,1.283567590000000
"9829",RAFFLES STORE,萊佛士商店,Collyer Quay,"10",Embroideries Dealers,NA,NA,"1946",NA,Tan Thong Ngee,陳統儀,,,"755",103.852679699999996,1.283567590000000
"10116",SAN TRADERS,三貿易公司,Collyer Quay,"10",Import and Export Merchants. and Commission Agents,NA,NA,"1948",NA,Santhapillai Thamansamy S/O Arulanram Pillai,,,,"789",103.852679699999996,1.283567590000000
"5485",KEE PHOTO STORE,啓攝影社,"Collyer Quay, Raffles Bazaan, Stall No. 1","10",Cameras and Films Dealers,NA,NA,"1945",NA,Tong Phang Kee,黃鵬基,,,"413",103.852679699999996,1.283567590000000
"5071","ISLAY KERR & CO., LTD.",伊士力卡公司,Collyer Quay,11-A,"Shipping Agents, etc.","5455",“BISON”,"1923","$500,000",H. J. Payne,,,"Agents: P. & O. S. N. Co.
B. I. S. N. Co. Ltd.","374",103.852679699999996,1.283567590000000
"9544",PENINSULAR & ORIENTAL STEAM NAVIGATION CO.,東方輪船公司,Collyer Quay,11-A,Shipping Merchants,"5455","""PENINSULAR""","1840","£7,649,853","Local Rep: Islay Kerr Co., Ltd",,,Inc. in England by Royal Charter,"733",103.852679699999996,1.283567590000000
"9784",QUAY PROPERTIES LTD.,基資產有限公司,Collyer Quay,11-A,Real Estates and Developing Land,NA,NA,"1947","$10,000",Directors: Alexander Kirkwood Brown,,,,"751",103.852679699999996,1.283567590000000
"10585",SHELL HOUSE (SINGAPORE) LIMITED,新加坡蛤殻土油公司,Collyer Quay,"12",Property Owners,NA,NA,NA,"$2,000,000",Directors: William George Taylor,,,(The Shell CO. of S.S. Ltd.),"826",103.852679699999996,1.283567590000000
"10583",THE SHELL CO OF FEDERATED MALAY STATES LTD.,馬來聯邦蛤殼土油公司,"Collyer Quay, Shell House","12",Suppliers of Mineral Oil,"3811",NA,"1911","£150,000",Local Rep: Palmer Donald Horsley,,,Inc. In England,"826",103.852679699999996,1.283567590000000
"10584",THE SHELL CO. OF SINGAPORE LTD.,新加坡蛤殻土油公司,"Collyer Quay, Shell House","12",Suppliers of Mineral Oil,NA,NA,"1911","£750,000",Local Rep: Palmer Donald Horsley,,,Inc. In England,"826",103.852679699999996,1.283567590000000
"4532",HONG KONG CO.,香源公司,Collyer Quay,"13",Fancy Goods and Curios Dealers,NA,NA,"1946",NA,Lim Pue Kie,林培基,,,"333",103.852679699999996,1.283567590000000
"4583",HONGKONG CO. SHOE DEPT.,香港公司鞋部,Collyer Quay,"13",Selling and Servicing Shoes,"83218",NA,"1946",NA,Heng Poh Hoon,王步雲,,,"337",103.852679699999996,1.283567590000000
"8940",K. M. B. NASRUDIN BROS.,那氏愈珍兄弟公司,Collyer Quay,"13","Cigarettes, Cigars and Sundries Retailers",NA,NA,"1941",NA,Kana Moona Bacha,,,,"685",103.852679699999996,1.283567590000000
"8350",S. M. MOHAMED NATHER,摩哈默那德,Collyer Quay,14-1,Coffee Shop,NA,NA,"1942",NA,Sena Moona Mohamed Nather,,,,"634",103.852679699999996,1.283567590000000
"2438",CITY BOOK STORE LIMITED,國際書店有限公司,Collyer Quay,"16","Booksellers, Publishers, Newsagents","6657","""CITIBOOK.""","1948","$500,000",Cheng Chin Kun,,,,"170",103.852679699999996,1.283567590000000
"3197",GAMMETER & CO.,金勿打公司,Collyer Quay,"16",Importers,"2152",NA,"1909",NA,Carl Ernest Richard,,,,"232",103.852679699999996,1.283567590000000
"3421",GRAFTON LABORATORIES LTD.,古拉弗湯藥廠,Collyer Quay,20-B,Grafton Laboratories,NA,NA,"1939","$200,000",Alexander James Turnes,,,,"247",103.852679699999996,1.283567590000000
"4585",HONGKONG & SHANGHAI BANKING CORPORATION,,Collyer Quay,"21",,"5937 (Private Branch Exchange).6135 Accountant.7851 Compradore.
6135 Accountant
7851 Compradore",Telegraphic Address: “PACIFIC”,NA,NA,Singapore Office: Manager C. L. Edwards,,,"P. O. Box 896 Inc. in Hongkong. Head Office: Hongkong
London Office: 9, Gracechurch Street, E. C. 3
BOARD OF DIRECTORS
Chairman and Chief Manager: Hon. A. Morse, C. B. E
Dy. Chairman: Hon. D. F. Landale
Dy. Chairman: H. D. Benham
Dy. Chairman: C. Blaker
","337",103.852679699999996,1.283567590000000
"6200",KOON TAT & CO.,羣達公司,"Collyer Quay, Winchester House","31",General Merchants,NA,NA,"1947",NA,Chua Teng Hwee,蔡廷輝,,,"465",103.852679699999996,1.283567590000000
"1978",P. CHINNIAH,青尼亞,Collyer Quay,"35","Cigarettes, Cheroots, Sweets Dealers",NA,NA,"1947",NA,Peyna Chinniah,,,,"142",103.852679699999996,1.283567590000000
,,,,,,,,,,,,,,,103.852679699999996,1.283567590000000
"3341",GLEN LINE LTD.,吉利航務有限公司,"Boustead & Co., Ltd., Union Building (Agents)",,"Shipowners, Ship Brokers, Insurance Etc",NA,NA,"1910","£225,000",Local Rep: Walker Frank Warrack,,,Inc. in England,"242",103.852679699999996,1.283567590000000
"2351",CHUNG & WONG,南洋拍賣館,Chung & Wong of Union Building,,Architects and Civil Engineers,"3254",NA,"1925",NA,Chung Hong Woot,曾鴻活,,,"164",103.852679699999996,1.283567590000000
"9476","PATERSON SIMONS & CO., LTD.",巴智申西門有限公司,Union Budg 6th Floor,,General Merchants,"5991",NA,"1907","£400,000",General Manager: C. H. Ker Cooper,,,Inc. in England,"728",103.852647899999994,1.284661799000000
"353","ALLIANCE ASSURANCE CO., LTD.",亞連保險公司,Union Building,,Dealing in Insurance Etc.,"5991",NA,"1902","£5,000,000","Local rep. Paterson Simons & Co., Ltd.",,,Inc. in England,"32",103.852647899999994,1.284661799000000
"386",AMERICAN PRESIDENT LINES LTD.,美國總統輪船有限公司,Union Building,F4-F6,Shipping,"3821",NA,"1931","$3,680,000",Local rep: E. L. Matteson,,,Inc. in U.S.A.,"35",103.852647899999994,1.284661799000000
"973",WILLIAM J. BERNARD,威廉百納,Union Building,Room 140,Import and Export Merchants,"80425",NA,"1946",NA,William J. Bernard,,,,"74",103.852647899999994,1.284661799000000
"1078",BOOTS PURE DRUG CO. (FAR EAST) LTD.,勿師藥行有限公司,Union Building,F. 13/14,"Patent Medicine Vendors, Drug Merchants, Manufacturers of Proprietory Articles","83648",“DRUGBOOTS.”,"1947","$1,000,000",Robert Lumley,,,,"81",103.852647899999994,1.284661799000000
"1174","BULOH KASAP RUBBER PLANTATIONS, LIMITED",勿羅加刹橡園公司,Union Building,1st. floor,Planters and Manufacturers,NA,NA,"1918","$1,203,000",Mitaranga Miltiades,,,,"89",103.852647899999994,1.284661799000000
"3024",FAR EASTERN OVERSEAS CORPORATION MALAYA,遠東海外公司,Union Building,,"Importers, Exporters, and General Merchants",NA,NA,"1947",NA,Leslie Denis Emerson Elliott,,,,"219",103.852647899999994,1.284661799000000
"3163",FRASER & CO.,花沙公司,Union Building,,"Stock and Share Broking, Exchange Broking, General Broking","5241",NA,NA,NA,Charles Pearson Ambler,,,,"228",103.852647899999994,1.284661799000000
"3165",FRASERS NOMINEES LTD.,花沙信託公司,Union Building,No. B-3,Attorneys & Trustees,NA,NA,"1937","$1,000",Allan Mathieson,,,,"228",103.852647899999994,1.284661799000000
"3750",THE HAN YANG PLANTATIONS LTD.,漢陽王梨園,Union Building,,Rubber Plantation,"S'pore. 7620 Estate, Masai 27","""ROSCOT""","1914","$2,000,000. Issued and Subscribed $1,725,000",G. H. Boreham,,,,"278",103.852647899999994,1.284661799000000
"6246","KUKUB (JOHORE) RUBBER ESTATES, LIMITED",古谷樹膠公司,Union Building,,Rubber Plantation,Singapore 7620,"""ROSCOT""","1937","$600,000 Issued & Subscribed $600,000",Directors: G. H. Boreham,,,,"469",103.852647899999994,1.284661799000000
"6779","LANCASHIRE SHIPPING CO., LTD.",蘭卡沙船務有限公司,Union Building,,Shipowners and Shipping Agents,NA,NA,"1896","£200,000","Agents: Paterson Simons & Co., Ltd.",,,Inc.in England,"512",103.852647899999994,1.284661799000000
"7034",LENGARRY TRADING COMPANY LIMITED,林牙利有限公司,Union Building,Room F. 18,Importers and Exporters,"82888",“WEFUL”,"1948","$50,000",Directors: William Neil Fuller,,,,"531",103.852647899999994,1.284661799000000
"7670",MACLAINE WATSON & COMPANY (MALAYA) LTD.,麥冷哇公司（馬來亞）,Union Building,,Commission Agents,NA,NA,"5194","$400,000",Directors: Ivor George Salmond,,,,"582",103.852647899999994,1.284661799000000
"7672",W. MCMULLAN & CO.,麥武蘭公司,Union Building,A14,General Agents,"82500",NA,"1947",NA,Manager: McMullan William,,,,"582",103.852647899999994,1.284661799000000
"7810",MALAYAN GUTTAS LTD.,馬來亞紅柅有限公司,Union Building,D19,Buyers of Natural Gums,"Office 6873, Factory 83270",“MAGUTTA”,"1938","$1,000,000",Directors: Ellsworth Brewer Buck,,,,"593",103.852647899999994,1.284661799000000
"9043","NEW ROMPIN & MENGKARAK RUBBER ESTATES, LIMITED",郎均膠園公司,Union Building,,Rubber Plantation,"Singapore 7620. Estate, Rompin 4",Roscot,"1925","$1,500,000 Issued and Subscribed $1,464,020",Directors: G. H. Boreham,,,,"694",103.852647899999994,1.284661799000000
"9257",ARTHUR J. ONDERWYZER,亞德烏得歪色,Union Building,,Diamond Importer,"83333",NA,"1921",NA,Arthur John Onderwyzer,,,,"710",103.852647899999994,1.284661799000000
"9491","PEAT, MARWICK, MITCHELL & CO.",碧馬為公司,Union Building,,Chartered Accountants,"5391",NA,"1947",NA,"Sir William Henry Peat, K.B.E.",,,,"729",103.852647899999994,1.284661799000000
"9959",RITCHIE AND BISSET,蘭眞味設,Union Building,E-1,"Consulting Engineers, Marine Surveyors and Naval Architects","5049",NA,"1940",NA,Frederick George Ritchie,,,,"765",103.852647899999994,1.284661799000000
"9976","ROMPIN RAHRU RUBBER ESTATE, LIMITED",勞派峇魯樹膠有限公司,Union Building,,Rubber Plantation,"S'pore 7620. Estate, Rompin 4","""ROSCOT""","1926","$320,000 Issued and Subscribed $312,000",Directors: G. H. Boreham,,,,"767",103.852647899999994,1.284661799000000
"9988","ROSS, TAYLOR & CO., LTD.",勞氏大勞有限公司,Union Building,,,"7620","""ROSCOT""",,NA,,,,Agents and Secretaries: The Han Yang Plantations Ltd,"768",103.852647899999994,1.284661799000000
"11892","SWAN & CO., LTD.",思遠有限公司,Union Building,F15,General Merchants,NA,NA,"1948","$100,000",Directors: Chung Hong Woo,,,,"931",103.852647899999994,1.284661799000000
"11897","THE SWEDISH EAST ASIA CO., LTD.",東亞有限公司,Union Building,,Shipping Teak Merchants' etc,NA,NA,"1916","$12,000,000","Local Agents: Paterson, Simons & Co., Ltd",,,,"932",103.852647899999994,1.284661799000000
"13214",TRIAD CORPORATION LTD.,泰益行有限公司,Union Building,E16/17,General Importers and Exporters,NA,NA,"1946","$250,000",Directors: Wong Shien Yein,,,,"1037",103.852647899999994,1.284661799000000
"13330",THE UNION TRADERS,友聯行,Union Building,F16-18,Merchants,NA,NA,"1947",NA,Lau Chang,劉鎭,,,"1048",103.852647899999994,1.284661799000000
"13354",THE UNITED CONSTRUCTION CO.,大同建築公司,Union Building,F15,Building and Constructing,"82169",NA,"1945",NA,Sun Mun Kan,岑文錦,,,"1050",103.852647899999994,1.284661799000000
"13430",VALBERG & NASARULLAH,默墨那沙汝拉,Union Building,,Passage Brokers,NA,NA,"1946",NA,Mohd. Nasarullah s/o Dost Mohd,,,,"1058",103.852647899999994,1.284661799000000
"13463",VELDEN & COMPANY LIMITED.,默連有限公司,Union Building,,"Merchants, Manufacturers, Importers and Exporters",NA,NA,"1948","$25,000","Directors: Warden, William John McKendrick",,,,"1061",103.852647899999994,1.284661799000000
"14506",CARRERAS LIMITED,卡烈拉有限公司,Union Building,N-3,"Tobacco and Cigar Merchants, and Importers","2877",NA,"1935","£200,000",Local Manager: George Walter Patton,,,Inc. in England,"1153",103.852647899999994,1.284661799000000
"14640","ROMPIN BAHRU RUBBER ESTATE, LIMITED",羅平峇汝樹膠有限公司,Union Building,F-2 & 3,Rubber Plantation,"7620",“ROSCOT.”,"1926","$320,000. Issued & Subscribed $312,000",Directors: G. H. Boreham,,,"Agents and Secretaries:—Ross Taylor & Co., Ltd.
Estate, Rompin 4","1164",103.852647899999994,1.284661799000000
"7020",LEHMANN KAN LIMITED,力民加有限公司,Union Building (2nd floor),D-16,Importers and Exporters,"7943",NA,"1946","$10,000",Directors: Cabbett John Christopher Kan Robert,,,,"529",103.852647899999994,1.284661799000000
"1089",C. V. BOSWELL & CO.,保斯成公司,Union Building 3rd Floor,E14,"Surveyors, Levellers and Appraisers","7920",NA,"1948",NA,Clarence Vivian Boswell,,,,"82",103.852647899999994,1.284661799000000
"1942","THE CHINA PRINTING FINISH-ING CO., LTD.",中國花紋印刷公司,Union Building 4th Floor,Room F 10-12,Textile Mill Owners & Manufacturers,"6697",NA,"1925","$10,000,000",Local Rep: James Ballard,,,Inc. in China,"140",103.852647899999994,1.284661799000000
"5042",INTERNATIONAL REPRESENTATIVE CO.,國際代理公司,Union Building 4th Floor,F—9,Commission Agents and General Merchants,"3017",NA,"1947",NA,Glenn Allen Wood,,,,"372",103.852647899999994,1.284661799000000
"9334",OSCAR LTD.,奧士卡有限公司,Union Building 6th Floor,,"Shipowners, Barge-Owners and Commercial Traders",NA,NA,"1913","£1,000",Local Rep: Christopher Gervase Windle,,,"Inc. in England. c/o Paterson, Simons & Co., Ltd","715",103.852647899999994,1.284661799000000
"9342",E. OTT & CO. (MALAYA) LTD.,惡有限公司,Union Building Room F-1,,General Merchants,"2243","""OTTPORE""","1947","$100,000",Directors: Emile Fouliard,,,,"716",103.852647899999994,1.284661799000000
"7473",LOH BROTHERS,羅兄弟,"Union Building, 2nd floor",15-D,Importers and Exporters,"7070",NA,"1946",NA,Loh Keng Chor,羅敬初,,,"564",103.852647899999994,1.284661799000000
"13333","UNION TRANSPORTING CO., LTD.",友聯運輸有限公司,"Union Building, 2nd floor, Collyer Quay",D12-A,Transportation and Lighterage,"4563",NA,"1947","$50,000",Directors: M. Abdul Kadir Marican,,,,"1049",103.852647899999994,1.284661799000000
"9230",M. OESTERMAN,奧士得門,"Union Building, 2nd Floor, Room D16",,Diamond Importing,NA,NA,"1947",NA,Maurits Oesterman,,,,"708",103.852647899999994,1.284661799000000
"3346",THE GLOBE TRADING LTD.,環球貿易有限公司,"Union Building, 4th Floor",16-18A,Importers and Exporters,"7364",NA,"1933","$200,000",Chan Kwai Choon,,,,"242",103.852647899999994,1.284661799000000
"856","THE BANK LINE, LIMITED",萬船有限公司,"Union Building, Collyer Quay",,Shipping,NA,NA,"1937",£400000,The Rt. Honourable Lord Inverforth,,,Inc. in Great Britain,"67",103.852647899999994,1.284661799000000
"1040","BLOCKS & CO., LTD.",勿洛克有限公司,"Union Building, Collyer Quay",F-8,"Importers, Exporters and General Merchants
Traders and Brokers","82154",“BLOCKSCO.”,"1947","$50,000",Adrianus G. G. R. Blocks,,,,"79",103.852647899999994,1.284661799000000
"1091",BOUSTEAD REAL PROPERTIES LIMITED,慕實德實業有限公司,"Union Building, Collyer Quay",,Real Estate,NA,NA,"1921","$3,000,000",Harry Bertram Roper-Calpbeck,,,,"82",103.852647899999994,1.284661799000000
"1092","BOUSTEAD & CO., LTD.",慕士德有限公司,"Union Building, Collyer Quay",,"General Merchants, Importers and Exporters, etc.","5161",NA,"1921","$2,500,000","Inc. in Malaya. Agents for Glen Line; Burns Philp Line; Bank Line; Union Steamship Co of New Zealand Ltd; Indo-China Steam Navigation Co Ltd; Siam Gulf Line",,,,"82",103.852647899999994,1.284661799000000
"1128","BRITISH TRADER’S INSURANCE CO., LTD.",英商保險有限公司,"Union Building, Collyer Quay",,"Marine, Fire and Accident Insurance",6808（Manager）82291 & 82292,"""UNION.""","1917","£1, 000, 000",Manager: J. A. Worswick,,,Inc. in Hongkong,"85",103.852647899999994,1.284661799000000
"1134","THE BROKEN HILL PROPRIETARY CO., LTD.",殘山有限公司,"Union Building, Collyer Quay",,Iron and Steel Mining etc.,"6943",NA,"1885","£25, 000, 000",Local Rep.: Dudley Joseph Pitt,,,Inc. in Australia,"85",103.852647899999994,1.284661799000000
"1179","BURNS PHILIP & CO., LTD.",布恩菲力有限公司,"Union Building, Collyer Quay",,"Importers, Exporters and General Merchants, Ship Owners",NA,NA,"1883","£2, 000, 000",Local Rep: Walker Frank Warrack,,,Inc. in Sydney N.S.W.,"89",103.852647899999994,1.284661799000000
"1201",CANADIAN PACIFIC STEAMSHIPS LTD.,坎太輸船公司,"Union Building, Collyer Quay",,Shipping,NA,NA,"1915","£2, 000, 000",Local Rep: Walker Frank Warrack,,,Inc. in England,"91",103.852647899999994,1.284661799000000
"1204",THE CANTON INSURANCE OFFICE LTD.,廣東保險公司,"Union Building, Collyer Quay",,Insurance,NA,NA,"1916","$2,500,000",Local Rep: Charles Edward Anton,,,Inc in Hongkong,"91",103.852647899999994,1.284661799000000
"1935","THE CHINA FIRE INSURANCE CO., LTD.",中國火險有限公司,"Union Building, Collyer Quay",,Fire and Marine Insurance,"Manager 6808, 82291, 82292.","""UNION.""",NA,"HK. $2,000,000",Manager: J. A. Worswisk.,,,Inc in Hongkong,"139",103.852647899999994,1.284661799000000
"5011","INDO-CHINA STEAM NAVIGATION CO., LTD.",安南汽船公司,"Union Building, Collyer Quay",,Shipping,NA,NA,"1881","£1,200,000","Local Rep: Boustead & Co., Ltd., Agents",,,Inc. in England,"369",103.852647899999994,1.284661799000000
"5119",JAVASTAAL STOKVIS N. V.,爪哇斯達,"Union Building, Collyer Quay",,"Iron and Steel Trade, Engineers and General Merchants",NA,NA,"1947","F. 900,000",Local Rep: Jan Adan Ten Bokkel Huinink,,,Inc. in Batavia,"381",103.852647899999994,1.284661799000000
"5497","KELANTAN RICE MILING CO., LTD.",吉蘭丹米行有限公司,"Union Building, Collyer Quay",,Rice Millers,NA,NA,"1935","$300,000",Directors: Crosley William Thomas,,,,"414",103.852647899999994,1.284661799000000
"6827",LEBEL (CHINA) LTD.,利墨有限公司,"Union Building, Collyer Quay",,"Textile Merchants, and General Importers and Exporters",NA,NA,"1927",NA,Local rep: Wallace Chen,,,Inc. in Hongkong,"516",103.852647899999994,1.284661799000000
"7514","THE LONDON & LANCASHIRE INSURANCE CO., LTD.",倫敦蘭開夏保險有限公司,"Union Building, Collyer Quay",,General Insurance,"7186",“LONDLANC” Singapore,"1920",NA,"Agents: Boustead & Co., Ltd.",,,Inc. in England,"567",103.852647899999994,1.284661799000000
"7668",WILLIAM MACARTHUR & CO.,韋廉米甲公司,"Union Building, Collyer Quay",,Chartered Accountants,"82722",NA,"1947",NA,William MacArthur,,,,"582",103.852647899999994,1.284661799000000
"8449","THE SUCCESSORS OF MOINE COMTE & CO., LTD.",摩爾光帝有限公司,"Union Building, Collyer Quay",,"General Merchants, Importers and Exporters","5996",NA,"1928","$200,000",Directors: Marcel Henri Lucien Lejeune,,,,"642",103.852647899999994,1.284661799000000
"8954",THE NATIONAL CITY BANK OF NEW YORK.,美國紐約銀行,"Union Building, Collyer Quay",,General Banking,"5826","""CITIBANK""",,"$250,000,000","Directors: William Gage Brady, Jr.",,,Inc. In U.S.A.,"686",103.852647899999994,1.284661799000000
"8963","THE NATIONAL MUTUAL LIFE ASSOCATION OF AUSTRALIA, LTD.",國民人壽保險公司,"Union Building, Collyer Quay",,Life Insurance,NA,NA,"1869",NA,"General Agents: Boustead & Co., Ltd",,,Inc. In Australia,"687",103.852647899999994,1.284661799000000
"9203","NORTH CHINA INSURANCE CO., LTD.",華北保險公司,"Union Building, Collyer Quay",,"Marine, Fire, and Accident Insurance",6808 (Manager) 82291 and 82292,"""UNION""",NA,"£150,000",J. A. Worswick,,,Inc. in Hongkong,"705",103.852647899999994,1.284661799000000
"9207",NORWEIGIAN AFRICA & AUSTRALIA LINE,挪威非澳輸船公司,"Union Building, Collyer Quay",,General Transports,NA,NA,"1924","Kr. 5,000,000","Local rep: Boustead & Co., Ltd.",,,,"706",103.852647899999994,1.284661799000000
"10001","ROYAL INSURANCE CO., LTD.",羅霞保險有限公司,"Union Building, Collyer Quay",,General Insurance,Resident Secretary 7186,"""QUAFF""","1916","£6.000,000","Local Rep: c/o Boustead & Co., Ltd. (Agents)",,,,"769",103.852647899999994,1.284661799000000
"10575","C. F. SHARP & CO., INC.",刹有限公司,"Union Building, Collyer Quay",,Shipping Agents and Operators,6593—80580—7310,“SUGARCRAFT”,"1937","P. 5,000",Local Rep: F. W. Hamilton,,,"Inc. In Manila
P. O. Box. 558","825",103.852647899999994,1.284661799000000
"11655","STANDARD VACUUM OIL CO., LTD.",實得力油較有限公司,"Union Building, Collyer Quay",,Marketers of Petroleum Products,"5275",NA,"1933","$10,000,000",Local rep: J. A. McQuilkin,,,Inc. in U.S.A.,"912",103.852647899999994,1.284661799000000
"11796",SUN INSURANCE OFFICE LTD.,新保險有限公司,"Union Building, Collyer Quay",,General Insurances,NA,NA,"1926","£500,000",Local rep: Charles Erid,,,Inc. in England,"924",103.852647899999994,1.284661799000000
"13313",UNION INSURANCE SOCIETY OF CANTON LTD.,友聯保險有限公司,"Union Building, Collyer Quay",,"Marine, Fire, Motor Car Etc., Insurance",6808 (Manager) 82291 and 82292,"""UNION""",NA,"£9,000,000",Manager: J. A. Worswick,,,Inc. in Hongkong,"1047",103.852647899999994,1.284661799000000
"13440",VAN REEKUM PAPER CO. (SINGAPORE) LTD.,萬力奎紙業有限公司,"Union Building, Collyer Quay",E13,"General Importers, Exporters and Financiers","4762",NA,"1939","£5,000",Directors: Michael Onnes,,,,"1059",103.852647899999994,1.284661799000000
"14038",THE YANGTSZE INSURANCE ASSOCIATION LTD.,遠錫保險有限公司,"Union Building, Collyer Quay",,"Fire, Marine and Accident Insurance","6808, 82291 and 82292",“UNION”,"1889","HK$1,500,000",Manager: J. A. Worswick.,,,Inc. in Hongkong,"1111",103.852647899999994,1.284661799000000
"14709",VAN REEKUM PAPER LTD.,萬力奎紙業有限公司,"Union Building, Collyer Quay",E16/17,Importers of Paper and Board,"4762",NA,"1939",NA,Manager: E. Ten Duis,,“REEKUPAPIE”,,"1171",103.852647899999994,1.284661799000000
"14730","JAMES WARREN & CO., LTD Formerly know throughout Malaya as: PLANTERS' STORES & AGENCY CO., LTD",邊蘭打士多有限公司,"Union Building, Collyer Quay",4th floor,"Estate Agents and Suppliers, General Import and Export Merchants, Insurance, Shipping Agents & Engineering Supplies of all Description","7903; Mgr.'s Res. 82470","""Planstor.""",,,Branch Mgr.: Charles Smith,,,(Incorporated in England 1878),"750",103.852647899999994,1.284661799000000
,,,,,,,,,,,,,,,103.851782799999995,1.284384842000000
"942",BEH TEIK JIM,馬迪壬,Winchester House,"51",Merchants and Agents,"82150",NA,"1947",NA,Beh Teik Jim,馬迪壬,,,"72",103.851782799999995,1.284384842000000
"9889",RAMLOCK & CO.,南洛公司,Winchester House,"31","Importers, Exporters and General Merchants",NA,NA,"1947",NA,Robin Monk Ramsay,羅保陸,,,"760",103.851782799999995,1.284384842000000
"450","ANGLO ORIENT TRADING CO., (MALAYA) LTD.",英國東方貿易公司,Winchester House,"34",General Merchants,"3670",NA,"1946","$100,000",Harold Tooke,,,,"39",103.851782799999995,1.284384842000000
"560","THE ASSOCIATED PRESS,  LTD.",美國新聞聯合通訊社,Winchester House,"54","Printers and Newspaper Agent, etc.","7158",NA,"1947","$500,000",Local rep: Stanley Swinton,,,Inc. in New York,"47",103.851782799999995,1.284384842000000
"1087",BOSTON HAIRDRESSING SALOON,波土頓理髮室,Winchester House,"13",Barbers,NA,NA,"1946",NA,Pang Tong Kuong,馮棠冠,,,"82",103.851782799999995,1.284384842000000
"1455",CHENG CHIANG SHIPPING COMPANY LIMITED,澄江輪船有限公司,Winchester House,"48","Ship-owners, Managers of Shipping","82125",NA,"1946","$1,000,000",Chay Sing Hai,,,,"107",103.851782799999995,1.284384842000000
"1696",CHIA BROS & CO.,謝兄弟公司,Winchester House,"31",Importers and Exporters,NA,NA,"1947",NA,Chia Eng Kiat,謝榮傑,,,"125",103.851782799999995,1.284384842000000
"1951",CHINA VEGETABLE OIL CORPORATION LTD.,中國植物油料廠,Winchester House,"29",Manufacturers of  Vegetable Oil,"6827","""CHINAVEG.""","1948","C.N. $2,000,000,000",Local Rep: Zee Sih Kai,,,Inc. in China,"141",103.851782799999995,1.284384842000000
"2477","THE W.H. COMSTOCK CO., LTD.",康土都有限公司,Winchester House,"25",Manufacture of Proprietory Medicines,"7746",NA,"1922","$300,000",Local Rep: Lo Ku Him,,,Inc. in Canada,"173",103.851782799999995,1.284384842000000
"2540",DAVIES & CO.,台維斯公司,Winchester House,"42",Manufacturers' Representatives,"4990",“DAVISCO.”,"1910",NA,J. O. Davies,,,P.O.Box：248,"183",103.851782799999995,1.284384842000000
"2564",DEAREX CO.,智列公司,Winchester House,"27",General Import and Export Merchants,NA,NA,"1948",NA,E. A. Dean,,,,"185",103.851782799999995,1.284384842000000
"2735",EE HOONG CHWEE & CO.,余雲水公司,Winchester House,"61",Architects,"6429",NA,"1936",NA,Ee Hoong Chwee,余雲水,,,"198",103.851782799999995,1.284384842000000
"3218",J. GAUDART & FILS (MALAYA),高達影片公司,Winchester House,"44",Ship Chandlers and Importers,"7905",NA,"1947",NA,Pierre Gaudart,,,,"234",103.851782799999995,1.284384842000000
"3644","GYTHFELDT & CO., LTD.",基弗狄有限公司,Winchester House,Room 31,Coal and Timber Merchants,"80485",NA,"1947","$200,000",Kaare Gythfeldt,,,,"262",103.851782799999995,1.284384842000000
"4966",IDEAL SILK STORE,理想布店,Winchester House,"2",Silk Merchants,NA,NA,"1947",NA,Ramchand Shewandas,,,,"365",103.851782799999995,1.284384842000000
"5058",N. S. ISAAC & SONS,伊沙父子公司,Winchester House,"18",Import and Export Merchants,"7539",NA,"1925",NA,Nassim Saul Isaac,,,,"373",103.851782799999995,1.284384842000000
"5526",KENG KEE,瓊記號,Winchester House,"2",General Store,NA,NA,"1946",NA,Wong Tit San,王鐵山,,,"416",103.851782799999995,1.284384842000000
"5693",KHOO BOO SIEW & CO.,邱武秀公司,Winchester House,38/40,Importers and Exporters,"7152",NA,"1947",NA,Khoo Boo Siew,邱武秀,,,"428",103.851782799999995,1.284384842000000
"6087",KOK HENG,國興號,Winchester House,"3","Dealing in Watches, Fountain Pens and Piece Goods",NA,NA,"1947",NA,Lim Kok Liang,林國樑,,,"457",103.851782799999995,1.284384842000000
"7313",LIM AH KOW,林亞九,Winchester House,"49",Commission Agents,"3618",NA,"1948",NA,Lim Ah Kow,林亞九,,,"552",103.851782799999995,1.284384842000000
"7420",LIM WEE CHENG & CO,林位正公司,Winchester House,"36",Importers and Exporters,"82608",NA,"1927",NA,Lim Wee Cheng,林位正,,,"560",103.851782799999995,1.284384842000000
"7766",MALAYA FILM SERVICE LIMITED.,馬來亞影片有限公司,Winchester House,"16","Distributors of American, British, Chinese and Indian Films","82060",“MAFIL.”,"1948","$100,000",Directors: Lee Chin Gee,,,,"589",103.851782799999995,1.284384842000000
"7940",MAYFIELD KENNELS & ZOO,美飛禽獸行,Winchester House,"43",Dealers in Animals and Domestic Pets,NA,NA,NA,NA,Herbert Humphrey De Souza,,,,"604",103.851782799999995,1.284384842000000
"8060",MERTON BROWN & CO.,馬丁公司,Winchester House,"14",Naval Architects Consulting Engineers,"80561",“MERBROCO.”,"1946",NA,"Brown, Merton H.",,,,"613",103.851782799999995,1.284384842000000
"9276",ONG KHENG CHUAH,王慶泉,Winchester House,"27",General Merchants,"2563","""WINIMEX""","1947",NA,Ong Kheng Chuah,王慶泉,,,"711",103.851782799999995,1.284384842000000
"9463",J. A. PARKER & CO.,百加公司,Winchester House,"21","Import, Export Merchants and Contractors","7474",NA,"1930",NA,J. A. Parker,,,,"727",103.851782799999995,1.284384842000000
"9478",PATHELA TEXTILES,百拉布莊,Winchester House,"12",Imports and Exporters of Textiles,NA,NA,"1948",NA,"Madanlal, Pathela S/O Karamchand",,,,"728",103.851782799999995,1.284384842000000
"9487",C. R. PAWA & CO.,普華公司,Winchester House,"62",Importers and Exporters of Textiles,NA,NA,"1948",NA,Jagal Ram S/O Goban Singh,,,,"728",103.851782799999995,1.284384842000000
"9740",PRESTO WILL COMPANY,百都滙公司,Winchester House,"19",General Merchants and Commission Agents,NA,NA,"1948",NA,William Tan,陳威廉,,,"747",103.851782799999995,1.284384842000000
"9846",RAJ & GOPAL,來鵝巴,Winchester House,Room 62,"Booksellers. Newsvendors, Publishers, Etc","7244","""YASODHA""","1945",NA,C. R. Dasaratharaj,,,P.O. Box 257,"756",103.851782799999995,1.284384842000000
"9936",E. S. REUBEN,力敏,Winchester House,"33",Watches and Clocks Dealers,NA,NA,"1925",NA,Ezra Silas Reuben,,,,"763",103.851782799999995,1.284384842000000
"10605",SHINFU & CO.,信孚洋行,Winchester House,Room 20,"Importer, Exporter and General Merchants",NA,NA,"1946",NA,Goh Hood Shim,吳佛心,,,"827",103.851782799999995,1.284384842000000
"11909",SWEE CHUAN TRADING CO.,瑞泉貿易公司,Winchester House,"26","General Merchants, Importers Exporters and Maufacturers Representative",NA,NA,"1947",NA,Ong Chin Kow,王振教,,,"933",103.851782799999995,1.284384842000000
"11996",TA KUNG PAU,大公報,Winchester House,"28",Newspaper Publishers,"80201",NA,"1946",NA,Hu Cheng Chih,胡 政之,,,"942",103.851782799999995,1.284384842000000
"12620",TEO HOCK BENG & CO.,趙福明公司,Winchester House,"31",Insurance Agents,"6952",NA,"1940",NA,Teo Geok Peck,趙玉璧,,,"990",103.851782799999995,1.284384842000000
"12738",THONG FOONG KOON,湯鴻坤,Winchester House,"45",House Agents,"6884",NA,"1940",NA,Thoong Foong Koon,湯鴻坤,,,"999",103.851782799999995,1.284384842000000
"13295",UNEEDUS SUPPLY AGENCY,安尼配给代理商,Winchester House,"31",Importers and Exporters,NA,NA,"1945",NA,Quah Kim Hock,柯金福,,,"1046",103.851782799999995,1.284384842000000
"13485",VEYNA SUPPIAH & SONS,里那沙吧父子公司,Winchester House,"21",Tongkang Owners and Lighterage Contractors,"2683",NA,"1947",NA,V. S. Kuppusamy,,,,"1063",103.851782799999995,1.284384842000000
"13700",WATT & CO.,發公司,Winchester House,21/20,Contractors and Merchants,NA,NA,"1947",NA,James Alfred Parker,,,,"1083",103.851782799999995,1.284384842000000
"14644",E. C. SEAH & SON,佘父子公司,Winchester House,"42",Architects,"4990",NA,"1947",NA,Seah Eng Choe,,,,"1165",103.851782799999995,1.284384842000000
"4655",HUA CHUAN TRADING CO.,華權貿易公司,Winchester House (1st floor),Room No. 27,Import and Export Merchants,"2563",“TRAHUA”,"1946",NA,Lim Nio Khuan,林良權,,,"342",103.851782799999995,1.284384842000000
"4684",HUA SIANG STEAMSHIP CO.,華商輸船公司,"Winchester House 1st floor, Collyer Quay","16",Shipping,"7857",“GOODSHIP”,"1926",NA,Chan Cheng Kum,曾清鑑,,,"344",103.851782799999995,1.284384842000000
"2616",DUPLEIX & MEHTER BROS.,趙比勒兄弟公司,Winchester House Collyer Quay,"60","Importers & Exporters, Manufacturers Representatives and Commission Agents",NA,NA,"1939",NA,Yaccob Ebrahim Dooply,,,,"189",103.851782799999995,1.284384842000000
"10168","THE SCIENTIFIC INSTRUMENT CO., LTD.",沙英弟菲有限公司,Winchester House Collyer Quay,"35",Dealers in Scientific Instruments,"6874",NA,"1937","$100,000",Directors: Frederick Stanley Wood,,,,"793",103.851782799999995,1.284384842000000
"4713",HUAY SUN,滙山號,"Winchester House, 2nd floor","47","Stevedoring Coal, General Cargo, Commission Agents, etc.","4714",NA,"1947",NA,Chia Chan Tok,謝讚讀,,,"346",103.851782799999995,1.284384842000000
"1055",BOLTER & SIMON,保特西門公司,"Winchester House, Collyer Quay","50",General Importers and Exporters,"6522",NA,"1946",NA,Joyce Bolter,,,,"80",103.851782799999995,1.284384842000000
"1438",K. CHELLARAM & SONS (FAR EAST) LIMITED,志那蘭父子公司,"Winchester House, Collyer Quay","22",Cotton Merchants,NA,NA,"1946","$2,000,000",K. Shewakram,,,,"106",103.851782799999995,1.284384842000000
"1456","CHENG CHIANG TRADING CO., LTD.",澄江贸易公司,"Winchester House, Collyer Quay","48","Importers and Exporters, and General Merchants",NA,NA,"1947","$1,000,000",Kok Hoong,,,,"107",103.851782799999995,1.284384842000000
"1487",CHENG TRADING CO.,振利貿易公司,"Winchester House, Collyer Quay","16","Paper Importers, Exporters and General Merchants","6818","""CHENTRACO.""","1946",NA,Cheng Chin Kun,鄭鎮崑,,,"109",103.851782799999995,1.284384842000000
"2562",DE SOUZA BROTHERS,智蘇沙兄弟公司,"Winchester House, Collyer Quay","42",Importers and Exporters,"82124",NA,NA,NA,Herbert Humphrey De Souza,,,,"185",103.851782799999995,1.284384842000000
"2618",DURHAM TRADERS LIMITED,德罕貿易有限公司,"Winchester House, Collyer Quay",Room 48,"Engineers, Contractors and General Merchants",NA,NA,"1948","$500,000",David Durham West,,,,"189",103.851782799999995,1.284384842000000
"2626",E LONG & CO.,易良公司,"Winchester House, Collyer Quay","19",Importers and Manufacturers' Representatives,"4464",NA,"1937",NA,Edward Leong,,,,"190",103.851782799999995,1.284384842000000
"3265",THE GENERAL TRADING COMPANY,普通貿易公司,"Winchester House, Collyer Quay","50",Textiles,NA,NA,"1948",NA,Hotchand S/O Jawharmal,,,,"237",103.851782799999995,1.284384842000000
"4246",HOCK HIN & CO.,福興公司,"Winchester House, Collyer Quay","37",Rubber Brokers,"3491",NA,"1946",NA,Lim Tian Lye,林天來,,,"314",103.851782799999995,1.284384842000000
"5120",JAY TRADING COMPANY,查貿易公司,"Winchester House, Collyer Quay","8",General Trading & Merchants,NA,NA,"1948",NA,Rennie Hugh Jones,,,,"381",103.851782799999995,1.284384842000000
"7609",LUCERNA CO.,若絲那公司,"Winchester House, Collyer Quay","11",General Merchants,"82151",NA,"1941",NA,Lau Chon Poh,劉松波,,,"574",103.851782799999995,1.284384842000000
"7765",MALAYA FILM SERVICE,馬來亞影業公司,"Winchester House, Collyer Quay","16","Cinematograph, Film Distrubtors and Exhibitors","82060",“MAFIL.”,"1946",NA,Ong Chin Kun,王振好,,,"589",103.851782799999995,1.284384842000000
"7811",MALAYAN IMPEX & CO.,馬來亞英伯公司,"Winchester House, Collyer Quay","22",Import & Export and Booking Orders,"7753",NA,"1948",NA,Shiv Nath Rai S/O Diwan Chand,,,,"593",103.851782799999995,1.284384842000000
"7921",MARINE SUPPLY CO.,馬仁配給公司,"Winchester House, Collyer Quay","31",Ship Chandlers and General Merchants,"7046",NA,"1946",NA,Tay Cheng Seng,鄭增城,,,"602",103.851782799999995,1.284384842000000
"8089",MILLINGTON LIMITED,麥玲登有限公司,"Winchester House, Collyer Quay",,Advertising Practitioners,"6602",“MILLADVERT.”,"1938","H.K. $361,180.49",Directors: J. W. Morcher,,,Inc. in Hongkong,"615",103.851782799999995,1.284384842000000
"8485",MORRISON TRADING CO.,摩里遜貿易公司,"Winchester House, Collyer Quay","33",Commission Agents in Fresh Fruits and Vegetables,NA,NA,"1946",NA,Manasseh Silas Reuben,,,,"645",103.851782799999995,1.284384842000000
"9328",ORIENTAL PUBLISHERS,東方出版社,"Winchester House, Collyer Quay","21",Publishers and Advertisers,NA,NA,"1947",NA,N. V. Rajah,,,,"715",103.851782799999995,1.284384842000000
"9201",NORMAN LIM SPORTS HOUSE,魯曼運動用品社,Winchester House,No. 2,"Sports Dealers, Importers and Exporters",NA,NA,"1948",NA,Norman Lim Cheng Peng,林正邦,,,"705",103.851782799999995,1.284384842000000
"13401",UNIVERSAL LAUNCH SERVICE,友聯輪船公司,Winchester House,"48",Hiring of Launches,NA,NA,"1948",NA,Chen Sin Fu,陳進福,,,"1055",103.851782799999995,1.284384842000000
